NORAD_CAT_ID,OBJECT_NAME,OBJECT_TYPE,EPOCH,MEAN_MOTION,ECCENTRICITY,INCLINATION,RA_OF_ASC_NODE,ARG_OF_PERICENTER,MEAN_ANOMALY,BSTAR,MEAN_MOTION_DOT,MEAN_MOTION_DDOT,TLE_LINE0,TLE_LINE1,TLE_LINE2,SEMIMAJOR_AXIS,PERIOD,APOGEE,PERIGEE,DECAYED
55421.0,STARLINK-5598,PAYLOAD,2023-12-18 03:52:16,14.98351336,0.000253,70.0011,333.1183,246.2597,113.8297,0.00029175,3.392e-05,0.0,0 STARLINK-5598,1 55421U 23014AG  23352.16130172  .00003392  00000-0  29175-3 0  9997,2 55421  70.0011 333.1183 0002530 246.2597 113.8297 14.98351336 49855,6950.127,96.106,573.75,570.234,0.0
55421.0,STARLINK-5598,PAYLOAD,2023-12-18 08:40:40,14.98355972,0.0002741,70.0005,332.6132,257.3433,102.7419,0.00031269,3.642e-05,0.0,0 STARLINK-5598,1 55421U 23014AG  23352.36157552  .00003642  00000-0  31269-3 0  9995,2 55421  70.0005 332.6132 0002741 257.3433 102.7419 14.98355972 49888,6950.113,96.105,573.883,570.073,0.0
55421.0,STARLINK-5598,PAYLOAD,2023-12-19 03:54:20,14.9831338,0.0002676,70.0002,330.5925,268.3758,91.7094,-0.00020721,-2.563e-05,0.0,0 STARLINK-5598,1 55421U 23014AG  23353.16273717 -.00002563  00000-0 -20721-3 0  9990,2 55421  70.0002 330.5925 0002676 268.3758  91.7094 14.98313380 50000,6950.244,96.108,573.969,570.249,0.0
55421.0,STARLINK-5598,PAYLOAD,2023-12-19 08:42:44,14.98315635,0.0002749,70.0001,330.0889,265.5169,94.5676,-0.00017615,-2.193e-05,0.0,0 STARLINK-5598,1 55421U 23014AG  23353.36301619 -.00002193  00000-0 -17615-3 0  9992,2 55421  70.0001 330.0889 0002749 265.5169  94.5676 14.98315635 50034,6950.237,96.108,574.013,570.192,0.0
55421.0,STARLINK-5598,PAYLOAD,2023-12-20 03:56:20,14.98336781,0.0002452,70.0009,328.0679,267.4309,92.6569,-0.00026867,-3.298e-05,0.0,0 STARLINK-5598,1 55421U 23014AG  23354.16412977 -.00003298  00000-0 -26867-3 0  9997,2 55421  70.0009 328.0679 0002452 267.4309  92.6569 14.98336781 50152,6950.172,96.107,573.741,570.333,0.0
55421.0,STARLINK-5598,PAYLOAD,2023-12-20 08:44:44,14.98339404,0.0002208,70.0011,327.564,256.7744,103.3169,-0.00022057,-2.724e-05,0.0,0 STARLINK-5598,1 55421U 23014AG  23354.36440547 -.00002724  00000-0 -22057-3 0  9993,2 55421  70.0011 327.5640 0002208 256.7744 103.3169 14.98339404 50184,6950.164,96.106,573.563,570.494,0.0
55421.0,STARLINK-5598,PAYLOAD,2023-12-21 03:58:20,14.98327269,0.0002244,70.0006,325.5424,264.3564,95.7339,0.00026042,3.015e-05,0.0,0 STARLINK-5598,1 55421U 23014AG  23355.16551886  .00003015  00000-0  26042-3 0  9991,2 55421  70.0006 325.5424 0002244 264.3564  95.7339 14.98327269 50304,6950.201,96.107,573.626,570.507,0.0
55421.0,STARLINK-5598,PAYLOAD,2023-12-21 08:46:44,14.98330211,0.0002074,70.0011,325.0379,254.5321,105.561,0.00028502,3.309e-05,0.0,0 STARLINK-5598,1 55421U 23014AG  23355.36579568  .00003309  00000-0  28502-3 0  9999,2 55421  70.0011 325.0379 0002074 254.5321 105.5610 14.98330211 50333,6950.192,96.107,573.499,570.616,0.0
55421.0,STARLINK-5598,PAYLOAD,2023-12-22 04:00:22,14.98322647,0.000246,70.0022,323.0214,227.5862,132.5089,-5.9114e-05,-7.98e-06,0.0,0 STARLINK-5598,1 55421U 23014AG  23356.16693150 -.00000798  00000-0 -59114-4 0  9997,2 55421  70.0022 323.0214 0002460 227.5862 132.5089 14.98322647 50457,6950.216,96.107,573.79,570.371,0.0
55421.0,STARLINK-5598,PAYLOAD,2023-12-22 07:12:39,14.98322793,0.0002531,70.0004,322.6817,253.7785,106.3095,-8.7231e-05,-1.133e-05,0.0,0 STARLINK-5598,1 55421U 23014AG  23356.30045306 -.00001133  00000-0 -87231-4 0  9992,2 55421  70.0004 322.6817 0002531 253.7785 106.3095 14.98322793 50475,6950.215,96.107,573.839,570.321,0.0
55421.0,STARLINK-5598,PAYLOAD,2023-12-23 04:02:23,14.98337825,0.0002485,70.0007,320.4944,244.9704,115.1197,-8.9281e-05,-1.158e-05,0.0,0 STARLINK-5598,1 55421U 23014AG  23357.16832287 -.00001158  00000-0 -89281-4 0  9993,2 55421  70.0007 320.4944 0002485 244.9704 115.1197 14.98337825 50604,6950.169,96.106,573.761,570.307,0.0
55421.0,STARLINK-5598,PAYLOAD,2023-12-23 07:14:38,14.98341544,0.0002621,69.9999,320.1558,263.1606,96.9255,-4.2307e-05,-5.98e-06,0.0,0 STARLINK-5598,1 55421U 23014AG  23357.30183899 -.00000598  00000-0 -42307-4 0  9992,2 55421  69.9999 320.1558 0002621 263.1606  96.9255 14.98341544 50621,6950.157,96.106,573.844,570.201,0.0
55421.0,STARLINK-5598,PAYLOAD,2023-12-24 04:04:24,14.98325182,0.0002582,70.0002,317.9678,262.4339,97.6527,8.5599e-05,9.28e-06,0.0,0 STARLINK-5598,1 55421U 23014AG  23358.16972555  .00000928  00000-0  85599-4 0  9997,2 55421  70.0002 317.9678 0002582 262.4339  97.6527 14.98325182 50751,6950.208,96.107,573.867,570.278,0.0
55421.0,STARLINK-5598,PAYLOAD,2023-12-24 07:16:40,14.98328543,0.000254,70.0004,317.6314,261.4107,98.6764,0.00011976,1.336e-05,0.0,0 STARLINK-5598,1 55421U 23014AG  23358.30324257  .00001336  00000-0  11976-3 0  9994,2 55421  70.0004 317.6314 0002540 261.4107  98.6764 14.98328543 50773,6950.197,96.107,573.828,570.297,0.0
55421.0,STARLINK-5598,PAYLOAD,2023-12-24 21:41:52,14.98332423,0.0002451,70.0005,316.1157,267.787,92.3009,-2.4123e-05,-3.81e-06,0.0,0 STARLINK-5598,1 55421U 23014AG  23358.90408454 -.00000381  00000-0 -24123-4 0  9992,2 55421  70.0005 316.1157 0002451 267.7870  92.3009 14.98332423 50865,6950.185,96.107,573.754,570.347,0.0
55421.0,STARLINK-5598,PAYLOAD,2023-12-25 04:06:25,14.98332499,0.0002328,70.001,315.4418,271.8155,88.2737,-1.4596e-05,-2.67e-06,0.0,0 STARLINK-5598,1 55421U 23014AG  23359.17112387 -.00000267  00000-0 -14596-4 0  9995,2 55421  70.0010 315.4418 0002328 271.8155  88.2737 14.98332499 50908,6950.185,96.107,573.668,570.432,0.0
55421.0,STARLINK-5598,PAYLOAD,2023-12-25 07:18:41,14.98333537,0.0002187,70.0014,315.1061,264.4006,95.6904,1.6652e-05,1.06e-06,0.0,0 STARLINK-5598,1 55421U 23014AG  23359.30464202  .00000106  00000-0  16652-4 0  9991,2 55421  70.0014 315.1061 0002187 264.4006  95.6904 14.98333537 50923,6950.182,96.107,573.567,570.527,0.0
55421.0,STARLINK-5598,PAYLOAD,2023-12-25 21:43:53,14.98328212,0.0002031,70.0017,313.5912,256.5261,103.5672,4.1397e-05,4.01e-06,0.0,0 STARLINK-5598,1 55421U 23014AG  23359.90548258  .00000401  00000-0  41397-4 0  9993,2 55421  70.0017 313.5912 0002031 256.5261 103.5672 14.98328212 51012,6950.198,96.107,573.475,570.652,0.0
55421.0,STARLINK-5598,PAYLOAD,2023-12-26 04:08:26,14.98326785,0.0002336,70.0012,312.9201,251.6635,108.427,-3.7717e-05,-5.43e-06,0.0,0 STARLINK-5598,1 55421U 23014AG  23360.17252588 -.00000543  00000-0 -37717-4 0  9992,2 55421  70.0012 312.9201 0002336 251.6635 108.4270 14.98326785 51055,6950.203,96.107,573.691,570.444,0.0
55421.0,STARLINK-5598,PAYLOAD,2023-12-26 07:20:42,14.98326233,0.0002302,70.001,312.5817,256.0291,104.0613,-1.087e-05,-2.23e-06,0.0,0 STARLINK-5598,1 55421U 23014AG  23360.30604589 -.00000223  00000-0 -10870-4 0  9995,2 55421  70.0010 312.5817 0002302 256.0291 104.0613 14.98326233 51075,6950.205,96.107,573.669,570.47,0.0
55421.0,STARLINK-5598,PAYLOAD,2023-12-26 21:45:54,14.98330754,0.0002869,70.0003,311.066,273.5363,86.5467,-8.9699e-06,-2e-06,0.0,0 STARLINK-5598,1 55421U 23014AG  23360.90688236 -.00000200  00000-0 -89699-5 0  9993,2 55421  70.0003 311.0660 0002869 273.5363  86.5467 14.98330754 51163,6950.191,96.107,574.05,570.062,0.0
55421.0,STARLINK-5598,PAYLOAD,2023-12-27 02:34:18,14.98334278,0.0002452,70.0005,310.5603,272.4692,87.6186,-7.8752e-05,-1.033e-05,0.0,0 STARLINK-5598,1 55421U 23014AG  23361.10716254 -.00001033  00000-0 -78752-4 0  9990,2 55421  70.0005 310.5603 0002452 272.4692  87.6186 14.98334278 51195,6950.18,96.107,573.749,570.34,0.0
55421.0,STARLINK-5598,PAYLOAD,2023-12-27 05:46:34,14.98343966,0.0002408,70.0008,310.224,272.3152,87.7732,-0.00015894,-1.989e-05,0.0,0 STARLINK-5598,1 55421U 23014AG  23361.24067778 -.00001989  00000-0 -15894-3 0  9992,2 55421  70.0008 310.2240 0002408 272.3152  87.7732 14.98343966 51218,6950.15,96.106,573.688,570.341,0.0
55421.0,STARLINK-5598,PAYLOAD,2023-12-27 20:11:47,14.98326312,0.0002188,70.0013,308.7104,259.8326,100.2586,6.3104e-05,6.6e-06,0.0,0 STARLINK-5598,1 55421U 23014AG  23361.84152182  .00000660  00000-0  63104-4 0  9993,2 55421  70.0013 308.7104 0002188 259.8326 100.2586 14.98326312 51307,6950.204,96.107,573.59,570.549,0.0
55421.0,STARLINK-5598,PAYLOAD,2023-12-27 21:47:55,14.98316284,0.0002337,70.0012,308.5416,263.5378,96.5515,0.00019859,2.277e-05,0.0,0 STARLINK-5598,1 55421U 23014AG  23361.90828346  .00002277  00000-0  19859-3 0  9995,2 55421  70.0012 308.5416 0002337 263.5378  96.5515 14.98316284 51312,6950.235,96.108,573.725,570.476,0.0
55421.0,STARLINK-5598,PAYLOAD,2023-12-28 05:48:36,14.98326595,0.0002195,70.0016,307.7011,258.005,102.0863,5.0736e-05,5.12e-06,0.0,0 STARLINK-5598,1 55421U 23014AG  23362.24208441  .00000512  00000-0  50736-4 0  9991,2 55421  70.0016 307.7011 0002195 258.0050 102.0863 14.98326595 51366,6950.203,96.107,573.594,570.543,0.0
55421.0,STARLINK-5598,PAYLOAD,2023-12-28 20:13:48,14.98329088,0.0002052,70.0017,306.1853,255.4572,104.636,4.6664e-05,4.64e-06,0.0,0 STARLINK-5598,1 55421U 23014AG  23362.84292158  .00000464  00000-0  46664-4 0  9996,2 55421  70.0017 306.1853 0002052 255.4572 104.6360 14.98329088 51456,6950.196,96.107,573.487,570.635,0.0
55421.0,STARLINK-5598,PAYLOAD,2023-12-29 05:50:36,14.98328293,0.0002465,70.001,305.176,260.3731,99.7149,-6.3331e-06,-1.68e-06,0.0,0 STARLINK-5598,1 55421U 23014AG  23363.24348344 -.00000168  00000-0 -63331-5 0  9994,2 55421  70.0010 305.1760 0002465 260.3731  99.7149 14.98328293 51518,6950.198,96.107,573.776,570.35,0.0
55421.0,STARLINK-5598,PAYLOAD,2023-12-29 21:51:57,14.98328055,0.0002703,70.0009,303.4926,261.3709,98.7143,5.1097e-05,5.17e-06,0.0,0 STARLINK-5598,1 55421U 23014AG  23363.91108143  .00000517  00000-0  51097-4 0  9990,2 55421  70.0009 303.4926 0002703 261.3709  98.7143 14.98328055 51612,6950.199,96.107,573.943,570.185,0.0
55421.0,STARLINK-5598,PAYLOAD,2023-12-30 04:16:29,14.98329482,0.0002677,70.0011,302.82,258.3012,101.7846,6.8756e-05,7.28e-06,0.0,0 STARLINK-5598,1 55421U 23014AG  23364.17811955  .00000728  00000-0  68756-4 0  9995,2 55421  70.0011 302.8200 0002677 258.3012 101.7846 14.98329482 51650,6950.194,96.107,573.92,570.199,0.0
